[{"OBJECT_NAME":"ONEWEB-0544","OBJECT_ID":"2023-004E","EPOCH":"2025-08-18T20:45:56.240928","MEAN_MOTION":13.18685922,"ECCENTRICITY":0.0001689,"INCLINATION":87.9128,"RA_OF_ASC_NODE":35.5461,"ARG_OF_PERICENTER":86.1823,"MEAN_ANOMALY":273.9502,"EPHEMERIS_TYPE":0,"CLASSIFICATION_TYPE":"U","NORAD_CAT_ID":55144,"ELEMENT_SET_NO":999,"REV_AT_EPOCH":12985,"BSTAR":0.00014349,"MEAN_MOTION_DOT":6.9e-7,"MEAN_MOTION_DDOT":0},{"OBJECT_NAME":"ONEWEB-0560","OBJECT_ID":"2023-004F","EPOCH":"2025-08-19T00:14:58.144416","MEAN_MOTION":13.18686368,"ECCENTRICITY":0.0001602,"INCLINATION":87.9136,"RA_OF_ASC_NODE":35.4938,"ARG_OF_PERICENTER":84.4465,"MEAN_ANOMALY":275.685,"EPHEMERIS_TYPE":0,"CLASSIFICATION_TYPE":"U","NORAD_CAT_ID":55145,"ELEMENT_SET_NO":999,"REV_AT_EPOCH":12988,"BSTAR":5.1398e-5,"MEAN_MOTION_DOT":3.3e-7,"MEAN_MOTION_DDOT":0},{"OBJECT_NAME":"ONEWEB-0565","OBJECT_ID":"2023-004G","EPOCH":"2025-08-19T00:05:26.550528","MEAN_MOTION":13.18687712,"ECCENTRICITY":0.0001293,"INCLINATION":87.9129,"RA_OF_ASC_NODE":35.5511,"ARG_OF_PERICENTER":101.28,"MEAN_ANOMALY":258.8478,"EPHEMERIS_TYPE":0,"CLASSIFICATION_TYPE":"U","NORAD_CAT_ID":55146,"ELEMENT_SET_NO":999,"REV_AT_EPOCH":12987,"BSTAR":5.4233e-5,"MEAN_MOTION_DOT":3.4e-7,"MEAN_MOTION_DDOT":0},{"OBJECT_NAME":"ONEWEB-0567","OBJECT_ID":"2023-004H","EPOCH":"2025-08-18T22:06:40.980960","MEAN_MOTION":13.18687726,"ECCENTRICITY":0.0001399,"INCLINATION":87.9134,"RA_OF_ASC_NODE":35.5262,"ARG_OF_PERICENTER":91.0483,"MEAN_ANOMALY":269.081,"EPHEMERIS_TYPE":0,"CLASSIFICATION_TYPE":"U","NORAD_CAT_ID":55147,"ELEMENT_SET_NO":999,"REV_AT_EPOCH":12986,"BSTAR":-4.7547e-5,"MEAN_MOTION_DOT":-6.0e-8,"MEAN_MOTION_DDOT":0},{"OBJECT_NAME":"ONEWEB-0569","OBJECT_ID":"2023-004J","EPOCH":"2025-08-18T23:08:06.357408","MEAN_MOTION":13.13468635,"ECCENTRICITY":0.0001038,"INCLINATION":87.8995,"RA_OF_ASC_NODE":20.2382,"ARG_OF_PERICENTER":65.2277,"MEAN_ANOMALY":294.896,"EPHEMERIS_TYPE":0,"CLASSIFICATION_TYPE":"U","NORAD_CAT_ID":55148,"ELEMENT_SET_NO":999,"REV_AT_EPOCH":13050,"BSTAR":-2.5534e-5,"MEAN_MOTION_DOT":3.0e-8,"MEAN_MOTION_DDOT":0},{"OBJECT_NAME":"ONEWEB-0570","OBJECT_ID":"2023-004K","EPOCH":"2025-08-18T23:41:42.710496","MEAN_MOTION":13.18685443,"ECCENTRICITY":0.000169,"INCLINATION":87.9131,"RA_OF_ASC_NODE":35.5147,"ARG_OF_PERICENTER":112.2278,"MEAN_ANOMALY":247.9034,"EPHEMERIS_TYPE":0,"CLASSIFICATION_TYPE":"U","NORAD_CAT_ID":55149,"ELEMENT_SET_NO":999,"REV_AT_EPOCH":12986,"BSTAR":-0.00013099,"MEAN_MOTION_DOT":-3.9e-7,"MEAN_MOTION_DDOT":0},{"OBJECT_NAME":"ONEWEB-0571","OBJECT_ID":"2023-004L","EPOCH":"2025-08-18T23:32:12.231168","MEAN_MOTION":13.18682577,"ECCENTRICITY":4.43e-5,"INCLINATION":87.9127,"RA_OF_ASC_NODE":35.5218,"ARG_OF_PERICENTER":95.7666,"MEAN_ANOMALY":264.3516,"EPHEMERIS_TYPE":0,"CLASSIFICATION_TYPE":"U","NORAD_CAT_ID":55150,"ELEMENT_SET_NO":999,"REV_AT_EPOCH":12987,"BSTAR":-0.00047934,"MEAN_MOTION_DOT":-1.76e-6,"MEAN_MOTION_DDOT":0},{"OBJECT_NAME":"ONEWEB-0572","OBJECT_ID":"2023-004M","EPOCH":"2025-08-18T21:55:44.294304","MEAN_MOTION":13.17644884,"ECCENTRICITY":0.0001595,"INCLINATION":87.903,"RA_OF_ASC_NODE":66.0132,"ARG_OF_PERICENTER":91.9063,"MEAN_ANOMALY":268.2251,"EPHEMERIS_TYPE":0,"CLASSIFICATION_TYPE":"U","NORAD_CAT_ID":55151,"ELEMENT_SET_NO":999,"REV_AT_EPOCH":12767,"BSTAR":0.00021656,"MEAN_MOTION_DOT":9.7e-7,"MEAN_MOTION_DDOT":0},{"OBJECT_NAME":"ONEWEB-0573","OBJECT_ID":"2023-004N","EPOCH":"2025-08-18T23:22:41.579040","MEAN_MOTION":13.18687306,"ECCENTRICITY":0.0001127,"INCLINATION":87.9128,"RA_OF_ASC_NODE":35.5299,"ARG_OF_PERICENTER":116.5854,"MEAN_ANOMALY":243.5393,"EPHEMERIS_TYPE":0,"CLASSIFICATION_TYPE":"U","NORAD_CAT_ID":55152,"ELEMENT_SET_NO":999,"REV_AT_EPOCH":12986,"BSTAR":-4.0899e-5,"MEAN_MOTION_DOT":-3.0e-8,"MEAN_MOTION_DDOT":0},{"OBJECT_NAME":"ONEWEB-0588","OBJECT_ID":"2023-004P","EPOCH":"2025-08-18T21:23:56.529600","MEAN_MOTION":13.18687287,"ECCENTRICITY":0.0001578,"INCLINATION":87.9131,"RA_OF_ASC_NODE":35.5314,"ARG_OF_PERICENTER":107.6505,"MEAN_ANOMALY":252.48,"EPHEMERIS_TYPE":0,"CLASSIFICATION_TYPE":"U","NORAD_CAT_ID":55153,"ELEMENT_SET_NO":999,"REV_AT_EPOCH":12985,"BSTAR":3.19e-5,"MEAN_MOTION_DOT":2.5e-7,"MEAN_MOTION_DDOT":0},{"OBJECT_NAME":"ONEWEB-0598","OBJECT_ID":"2023-004Q","EPOCH":"2025-08-18T20:56:20.384160","MEAN_MOTION":13.11418042,"ECCENTRICITY":0.0001225,"INCLINATION":87.878,"RA_OF_ASC_NODE":81.3294,"ARG_OF_PERICENTER":70.2236,"MEAN_ANOMALY":289.9024,"EPHEMERIS_TYPE":0,"CLASSIFICATION_TYPE":"U","NORAD_CAT_ID":55154,"ELEMENT_SET_NO":999,"REV_AT_EPOCH":12627,"BSTAR":0.0011386,"MEAN_MOTION_DOT":4.16e-6,"MEAN_MOTION_DDOT":0},{"OBJECT_NAME":"ONEWEB-0599","OBJECT_ID":"2023-004R","EPOCH":"2025-08-19T02:27:51.920928","MEAN_MOTION":13.17651192,"ECCENTRICITY":0.0001678,"INCLINATION":87.9027,"RA_OF_ASC_NODE":65.9793,"ARG_OF_PERICENTER":81.2504,"MEAN_ANOMALY":278.8817,"EPHEMERIS_TYPE":0,"CLASSIFICATION_TYPE":"U","NORAD_CAT_ID":55155,"ELEMENT_SET_NO":999,"REV_AT_EPOCH":12770,"BSTAR":-0.00011029,"MEAN_MOTION_DOT":-3.0e-7,"MEAN_MOTION_DDOT":0},{"OBJECT_NAME":"ONEWEB-0614","OBJECT_ID":"2023-004S","EPOCH":"2025-08-18T22:38:53.006784","MEAN_MOTION":13.11417931,"ECCENTRICITY":0.0001827,"INCLINATION":87.8782,"RA_OF_ASC_NODE":81.3251,"ARG_OF_PERICENTER":94.4244,"MEAN_ANOMALY":265.7093,"EPHEMERIS_TYPE":0,"CLASSIFICATION_TYPE":"U","NORAD_CAT_ID":55156,"ELEMENT_SET_NO":999,"REV_AT_EPOCH":12622,"BSTAR":0.00022723,"MEAN_MOTION_DOT":9.3e-7,"MEAN_MOTION_DDOT":0},{"OBJECT_NAME":"ONEWEB-0616","OBJECT_ID":"2023-004T","EPOCH":"2025-08-18T22:00:35.454528","MEAN_MOTION":13.17650277,"ECCENTRICITY":0.000235,"INCLINATION":87.903,"RA_OF_ASC_NODE":66.0076,"ARG_OF_PERICENTER":62.9372,"MEAN_ANOMALY":297.1999,"EPHEMERIS_TYPE":0,"CLASSIFICATION_TYPE":"U","NORAD_CAT_ID":55157,"ELEMENT_SET_NO":999,"REV_AT_EPOCH":12789,"BSTAR":0.00061094,"MEAN_MOTION_DOT":2.5e-6,"MEAN_MOTION_DDOT":0},{"OBJECT_NAME":"ONEWEB-0617","OBJECT_ID":"2023-004U","EPOCH":"2025-08-18T20:31:54.794784","MEAN_MOTION":13.11417616,"ECCENTRICITY":0.0001602,"INCLINATION":87.8782,"RA_OF_ASC_NODE":81.3212,"ARG_OF_PERICENTER":95.878,"MEAN_ANOMALY":264.253,"EPHEMERIS_TYPE":0,"CLASSIFICATION_TYPE":"U","NORAD_CAT_ID":55158,"ELEMENT_SET_NO":999,"REV_AT_EPOCH":12623,"BSTAR":-0.0010286,"MEAN_MOTION_DOT":-3.52e-6,"MEAN_MOTION_DDOT":0},{"OBJECT_NAME":"ONEWEB-0618","OBJECT_ID":"2023-004V","EPOCH":"2025-08-18T15:04:33.160512","MEAN_MOTION":14.67975674,"ECCENTRICITY":0.0013343,"INCLINATION":86.9093,"RA_OF_ASC_NODE":299.2742,"ARG_OF_PERICENTER":338.3123,"MEAN_ANOMALY":21.7525,"EPHEMERIS_TYPE":0,"CLASSIFICATION_TYPE":"U","NORAD_CAT_ID":55159,"ELEMENT_SET_NO":999,"REV_AT_EPOCH":13672,"BSTAR":0.00017266,"MEAN_MOTION_DOT":1.013e-5,"MEAN_MOTION_DDOT":0},{"OBJECT_NAME":"ONEWEB-0619","OBJECT_ID":"2023-004W","EPOCH":"2025-08-18T22:46:46.052832","MEAN_MOTION":13.17650587,"ECCENTRICITY":0.0002328,"INCLINATION":87.9026,"RA_OF_ASC_NODE":65.9762,"ARG_OF_PERICENTER":90.8996,"MEAN_ANOMALY":269.2402,"EPHEMERIS_TYPE":0,"CLASSIFICATION_TYPE":"U","NORAD_CAT_ID":55160,"ELEMENT_SET_NO":999,"REV_AT_EPOCH":12779,"BSTAR":0.00025878,"MEAN_MOTION_DOT":1.13e-6,"MEAN_MOTION_DDOT":0},{"OBJECT_NAME":"ONEWEB-0620","OBJECT_ID":"2023-004X","EPOCH":"2025-08-18T20:24:35.036928","MEAN_MOTION":13.11417176,"ECCENTRICITY":0.0001505,"INCLINATION":87.8782,"RA_OF_ASC_NODE":81.3438,"ARG_OF_PERICENTER":85.7953,"MEAN_ANOMALY":274.3347,"EPHEMERIS_TYPE":0,"CLASSIFICATION_TYPE":"U","NORAD_CAT_ID":55161,"ELEMENT_SET_NO":999,"REV_AT_EPOCH":12620,"BSTAR":-0.0013396,"MEAN_MOTION_DOT":-4.62e-6,"MEAN_MOTION_DDOT":0},{"OBJECT_NAME":"ONEWEB-0621","OBJECT_ID":"2023-004Y","EPOCH":"2025-08-19T02:33:16.680384","MEAN_MOTION":13.11417918,"ECCENTRICITY":0.0001912,"INCLINATION":87.8788,"RA_OF_ASC_NODE":81.2497,"ARG_OF_PERICENTER":88.8594,"MEAN_ANOMALY":271.2753,"EPHEMERIS_TYPE":0,"CLASSIFICATION_TYPE":"U","NORAD_CAT_ID":55162,"ELEMENT_SET_NO":999,"REV_AT_EPOCH":12624,"BSTAR":0.0014128,"MEAN_MOTION_DOT":5.13e-6,"MEAN_MOTION_DDOT":0},{"OBJECT_NAME":"ONEWEB-0622","OBJECT_ID":"2023-004Z","EPOCH":"2025-08-18T21:10:59.615616","MEAN_MOTION":13.11416368,"ECCENTRICITY":0.0001714,"INCLINATION":87.878,"RA_OF_ASC_NODE":81.3164,"ARG_OF_PERICENTER":110.7927,"MEAN_ANOMALY":249.3384,"EPHEMERIS_TYPE":0,"CLASSIFICATION_TYPE":"U","NORAD_CAT_ID":55163,"ELEMENT_SET_NO":999,"REV_AT_EPOCH":12617,"BSTAR":0.0016345,"MEAN_MOTION_DOT":5.92e-6,"MEAN_MOTION_DDOT":0},{"OBJECT_NAME":"ONEWEB-0623","OBJECT_ID":"2023-004AA","EPOCH":"2025-08-18T19:00:45.152928","MEAN_MOTION":13.1764719,"ECCENTRICITY":0.0002133,"INCLINATION":87.9024,"RA_OF_ASC_NODE":66.0643,"ARG_OF_PERICENTER":107.0969,"MEAN_ANOMALY":253.0397,"EPHEMERIS_TYPE":0,"CLASSIFICATION_TYPE":"U","NORAD_CAT_ID":55164,"ELEMENT_SET_NO":999,"REV_AT_EPOCH":12776,"BSTAR":-0.0001541,"MEAN_MOTION_DOT":-4.7e-7,"MEAN_MOTION_DDOT":0},{"OBJECT_NAME":"ONEWEB-0624","OBJECT_ID":"2023-004AB","EPOCH":"2025-08-19T00:36:08.083584","MEAN_MOTION":13.12943509,"ECCENTRICITY":0.0001788,"INCLINATION":87.8856,"RA_OF_ASC_NODE":50.7031,"ARG_OF_PERICENTER":90.5907,"MEAN_ANOMALY":269.5427,"EPHEMERIS_TYPE":0,"CLASSIFICATION_TYPE":"U","NORAD_CAT_ID":55165,"ELEMENT_SET_NO":999,"REV_AT_EPOCH":12842,"BSTAR":0.0010625,"MEAN_MOTION_DOT":3.98e-6,"MEAN_MOTION_DDOT":0},{"OBJECT_NAME":"ONEWEB-0625","OBJECT_ID":"2023-004AC","EPOCH":"2025-08-18T18:46:11.028576","MEAN_MOTION":13.17649757,"ECCENTRICITY":0.0001814,"INCLINATION":87.9023,"RA_OF_ASC_NODE":66.0633,"ARG_OF_PERICENTER":82.6783,"MEAN_ANOMALY":277.4554,"EPHEMERIS_TYPE":0,"CLASSIFICATION_TYPE":"U","NORAD_CAT_ID":55166,"ELEMENT_SET_NO":999,"REV_AT_EPOCH":12775,"BSTAR":5.5296e-5,"MEAN_MOTION_DOT":3.4e-7,"MEAN_MOTION_DDOT":0},{"OBJECT_NAME":"ONEWEB-0626","OBJECT_ID":"2023-004AD","EPOCH":"2025-08-18T22:10:18.060960","MEAN_MOTION":13.1764957,"ECCENTRICITY":0.000123,"INCLINATION":87.9024,"RA_OF_ASC_NODE":66.0337,"ARG_OF_PERICENTER":80.5683,"MEAN_ANOMALY":279.5588,"EPHEMERIS_TYPE":0,"CLASSIFICATION_TYPE":"U","NORAD_CAT_ID":55167,"ELEMENT_SET_NO":999,"REV_AT_EPOCH":12777,"BSTAR":0.00015255,"MEAN_MOTION_DOT":7.2e-7,"MEAN_MOTION_DDOT":0}]
